{
  "type": "FeatureCollection",
  "features": [
    {
      "type": "Feature",
      "properties": {
        "norad_id": 37836,
        "name": "EUTELSAT 16A",
        "group": "eutelsat",
        "lat": -0.049776683291857304,
        "lon": -144.88739648513587,
        "alt_km": 35774.06604708662,
        "timestamp": "2025-12-25T07:00:33.713675+00:00",
        "meta_object_name": "EUTELSAT 16A",
        "meta_object_id": "2011-057A",
        "meta_epoch": "2025-12-24T21:44:06.451008",
        "meta_mean_motion": 1.0027108,
        "meta_eccentricity": 0.00058423,
        "meta_inclination": 0.0561,
        "meta_ra_of_asc_node": 348.6529,
        "meta_arg_of_pericenter": 286.9803,
        "meta_mean_anomaly": 160.0511,
        "meta_ephemeris_type": 0,
        "meta_classification_type": "U",
        "meta_norad_cat_id": 37836,
        "meta_element_set_no": 999,
        "meta_rev_at_epoch": 558,
        "meta_bstar": 0,
        "meta_mean_motion_dot": 1.25e-06,
        "meta_mean_motion_ddot": 0,
        "tle_line1": "1 37836U 11057A   25358.90563022  .00000125  00000+0  00000+0 0  9997",
        "tle_line2": "2 37836   0.0561 348.6529 0005842 286.9803 160.0511  1.00271080  5584"
      },
      "geometry": {
        "type": "Point",
        "coordinates": [
          -144.88739648513587,
          -0.049776683291857304
        ]
      }
    },
    {
      "type": "Feature",
      "properties": {
        "norad_id": 38992,
        "name": "EUTELSAT 21B",
        "group": "eutelsat",
        "lat": -0.062000235849729274,
        "lon": -139.26724141662777,
        "alt_km": 35779.09788672344,
        "timestamp": "2025-12-25T07:00:33.713687+00:00",
        "meta_object_name": "EUTELSAT 21B",
        "meta_object_id": "2012-062B",
        "meta_epoch": "2025-12-24T21:45:43.795296",
        "meta_mean_motion": 1.00271035,
        "meta_eccentricity": 0.00032453,
        "meta_inclination": 0.0657,
        "meta_ra_of_asc_node": 349.4263,
        "meta_arg_of_pericenter": 289.9488,
        "meta_mean_anomaly": 162.3095,
        "meta_ephemeris_type": 0,
        "meta_classification_type": "U",
        "meta_norad_cat_id": 38992,
        "meta_element_set_no": 999,
        "meta_rev_at_epoch": 4808,
        "meta_bstar": 0,
        "meta_mean_motion_dot": 1.51e-06,
        "meta_mean_motion_ddot": 0,
        "tle_line1": "1 38992U 12062B   25358.90675689  .00000151  00000+0  00000+0 0  9990",
        "tle_line2": "2 38992   0.0657 349.4263 0003245 289.9488 162.3095  1.00271035 48089"
      },
      "geometry": {
        "type": "Point",
        "coordinates": [
          -139.26724141662777,
          -0.062000235849729274
        ]
      }
    },
    {
      "type": "Feature",
      "properties": {
        "norad_id": 39020,
        "name": "EUTELSAT 70B",
        "group": "eutelsat",
        "lat": -0.07991563534073826,
        "lon": -90.30614104681317,
        "alt_km": 35768.89663955612,
        "timestamp": "2025-12-25T07:00:33.713699+00:00",
        "meta_object_name": "EUTELSAT 70B",
        "meta_object_id": "2012-069A",
        "meta_epoch": "2025-12-24T20:16:59.793600",
        "meta_mean_motion": 1.00271857,
        "meta_eccentricity": 0.00041936,
        "meta_inclination": 0.062,
        "meta_ra_of_asc_node": 346.7873,
        "meta_arg_of_pericenter": 268.1585,
        "meta_mean_anomaly": 213.4107,
        "meta_ephemeris_type": 0,
        "meta_classification_type": "U",
        "meta_norad_cat_id": 39020,
        "meta_element_set_no": 999,
        "meta_rev_at_epoch": 4776,
        "meta_bstar": 0,
        "meta_mean_motion_dot": -2.2e-07,
        "meta_mean_motion_ddot": 0,
        "tle_line1": "1 39020U 12069A   25358.84513650 -.00000022  00000+0  00000+0 0  9990",
        "tle_line2": "2 39020   0.0620 346.7873 0004193 268.1585 213.4107  1.00271857 47767"
      },
      "geometry": {
        "type": "Point",
        "coordinates": [
          -90.30614104681317,
          -0.07991563534073826
        ]
      }
    },
    {
      "type": "Feature",
      "properties": {
        "norad_id": 39122,
        "name": "EUTELSAT 117 WEST A",
        "group": "eutelsat",
        "lat": 0.03071009817423888,
        "lon": 82.40028880973995,
        "alt_km": 35797.52635109167,
        "timestamp": "2025-12-25T07:00:33.713711+00:00",
        "meta_object_name": "EUTELSAT 117 WEST A",
        "meta_object_id": "2013-012A",
        "meta_epoch": "2025-12-24T14:15:19.427904",
        "meta_mean_motion": 1.0027077,
        "meta_eccentricity": 0.00027295,
        "meta_inclination": 0.0203,
        "meta_ra_of_asc_node": 318.1474,
        "meta_arg_of_pericenter": 318.7018,
        "meta_mean_anomaly": 273.5546,
        "meta_ephemeris_type": 0,
        "meta_classification_type": "U",
        "meta_norad_cat_id": 39122,
        "meta_element_set_no": 999,
        "meta_rev_at_epoch": 4668,
        "meta_bstar": 0,
        "meta_mean_motion_dot": 8e-08,
        "meta_mean_motion_ddot": 0,
        "tle_line1": "1 39122U 13012A   25358.59397486  .00000008  00000+0  00000+0 0  9994",
        "tle_line2": "2 39122   0.0203 318.1474 0002729 318.7018 273.5546  1.00270770 46680"
      },
      "geometry": {
        "type": "Point",
        "coordinates": [
          82.40028880973995,
          0.03071009817423888
        ]
      }
    },
    {
      "type": "Feature",
      "properties": {
        "norad_id": 39163,
        "name": "EUTELSAT 7B",
        "group": "eutelsat",
        "lat": -0.024777470992369054,
        "lon": -153.86666990046226,
        "alt_km": 35794.63246131397,
        "timestamp": "2025-12-25T07:00:33.713724+00:00",
        "meta_object_name": "EUTELSAT 7B",
        "meta_object_id": "2013-022A",
        "meta_epoch": "2025-12-24T21:41:36.689568",
        "meta_mean_motion": 1.00271629,
        "meta_eccentricity": 0.00046018,
        "meta_inclination": 0.0658,
        "meta_ra_of_asc_node": 9.0078,
        "meta_arg_of_pericenter": 313.4788,
        "meta_mean_anomaly": 103.5806,
        "meta_ephemeris_type": 0,
        "meta_classification_type": "U",
        "meta_norad_cat_id": 39163,
        "meta_element_set_no": 999,
        "meta_rev_at_epoch": 4620,
        "meta_bstar": 0,
        "meta_mean_motion_dot": 6.9e-07,
        "meta_mean_motion_ddot": 0,
        "tle_line1": "1 39163U 13022A   25358.90389687  .00000069  00000+0  00000+0 0  9996",
        "tle_line2": "2 39163   0.0658   9.0078 0004601 313.4788 103.5806  1.00271629 46205"
      },
      "geometry": {
        "type": "Point",
        "coordinates": [
          -153.86666990046226,
          -0.024777470992369054
        ]
      }
    },
    {
      "type": "Feature",
      "properties": {
        "norad_id": 39612,
        "name": "EXPRESS-AT1",
        "group": "eutelsat",
        "lat": -0.015394845636025169,
        "lon": -104.8093585838663,
        "alt_km": 35788.911302493594,
        "timestamp": "2025-12-25T07:00:33.713736+00:00",
        "meta_object_name": "EXPRESS-AT1",
        "meta_object_id": "2014-010A",
        "meta_epoch": "2025-12-24T21:55:35.351040",
        "meta_mean_motion": 1.00271265,
        "meta_eccentricity": 8.894e-05,
        "meta_inclination": 0.0123,
        "meta_ra_of_asc_node": 292.9239,
        "meta_arg_of_pericenter": 186.2231,
        "meta_mean_anomaly": 359.4276,
        "meta_ephemeris_type": 0,
        "meta_classification_type": "U",
        "meta_norad_cat_id": 39612,
        "meta_element_set_no": 999,
        "meta_rev_at_epoch": 4307,
        "meta_bstar": 0,
        "meta_mean_motion_dot": 1e-06,
        "meta_mean_motion_ddot": 0,
        "tle_line1": "1 39612U 14010A   25358.91360360  .00000100  00000+0  00000+0 0  9997",
        "tle_line2": "2 39612   0.0123 292.9239 0000889 186.2231 359.4276  1.00271265 43077"
      },
      "geometry": {
        "type": "Point",
        "coordinates": [
          -104.8093585838663,
          -0.015394845636025169
        ]
      }
    },
    {
      "type": "Feature",
      "properties": {
        "norad_id": 39613,
        "name": "EXPRESS-AT2",
        "group": "eutelsat",
        "lat": 0.002167387703401524,
        "lon": -20.93342742899132,
        "alt_km": 35783.36755139265,
        "timestamp": "2025-12-25T07:00:33.713748+00:00",
        "meta_object_name": "EXPRESS-AT2",
        "meta_object_id": "2014-010B",
        "meta_epoch": "2025-12-24T22:19:25.569120",
        "meta_mean_motion": 1.00272061,
        "meta_eccentricity": 0.0001582,
        "meta_inclination": 0.0172,
        "meta_ra_of_asc_node": 291.1665,
        "meta_arg_of_pericenter": 341.4259,
        "meta_mean_anomaly": 295.8232,
        "meta_ephemeris_type": 0,
        "meta_classification_type": "U",
        "meta_norad_cat_id": 39613,
        "meta_element_set_no": 999,
        "meta_rev_at_epoch": 4275,
        "meta_bstar": 0,
        "meta_mean_motion_dot": -2.6e-06,
        "meta_mean_motion_ddot": 0,
        "tle_line1": "1 39613U 14010B   25358.93015705 -.00000260  00000+0  00000+0 0  9998",
        "tle_line2": "2 39613   0.0172 291.1665 0001582 341.4259 295.8232  1.00272061 42756"
      },
      "geometry": {
        "type": "Point",
        "coordinates": [
          -20.93342742899132,
          0.002167387703401524
        ]
      }
    }
  ]
}